Business Name,Address,City,State,Zip Code,matches
Blair Family & Sports Chiropractic,1185 Arther St.,Eugene,OR,97402,Blair Family & Sports Chiro
McKenzie Orchards Bed & Breakfast,34694 McKenzie View Drive,Springfield,OR,97478,Mckenzie Orchards B & B
Willamalane Adult Activity Center,215 W C St.,Springfield,OR,97477,Willamalane Adult Activity Ctr
City of Springfield City Hall,225 5th St.,Springfield,OR,97477,Springfield City Hall
Cottage Grove Area Chamber of Commerce,700 E Gibbs Suite C,Cottage Grove,OR,97424,Cottage Grove Chamber-Commerce
Heceta Beach RV Park,4636 Heceta Beach Road,Florence,OR,97439,Heceta Beach Rv PARK
Port of Siuslaw Campground Park & Marina,100 Harbor St.,Florence,OR,97439,Port Of Siuslaw Campground
Arbor Inn Motel Oakridge,48229 Hwy. 58,Oakridge,OR,97463,Arbor Inn Motel
Caddisfly Resort,56404 McKenzie Hwy.,McKenzie Bridge,OR,97413,Caddisfly Resort LLC
Courtesy Inn,345 W. 6th Ave.,Eugene,OR,97401,Courtesy Inn Eugene
Horse Creek Lodge & Outfitters,56228 Delta Drive,McKenzie Bridge,OR,97413,Horse Creek Lodge
Inn at the 5th,205 E. 6th Ave.,Eugene,OR,97401,Inn At The 5th
McKenzie River Mountain Resort,51668 Blue River Drive,Blue River,OR,97488,Mckenzie River Mountain Resort
Splash! Lively Park Swim Center,6100 Thurston Rd.,Springfield,OR,97478,Splash! At Lively Park
Willamalane Park Swim Center,1276 G St.,Springfield,OR,97477,Willamalane Park
"Bicycle Way of Life, Inc.",556 Charnelton Street,Eugene,OR,97401,Bicycle Way Of Life
Paul's Bicycle Way of Life – Downtown,556 Charnelton Street,Eugene,OR,97401,Paul s Bicycle Way Of Life
Paul's Bicycle Way of Life – South Eugene,2480 Alder St,Eugene,OR,97405,Paul s Bicycle Way Of Life
Rainy Peak Bicycles,533 East Main Street,Cottage Grove,OR,97424,Rainy Peak Bicycle
Rolf Prima,150 Shelton McMurphey Blvd. Ste 101,Eugene,OR,97401,Rolf Prima Inc
REI - Eugene,306 Lawrence St.,Eugene,OR,97401,REI
The Duck Store,895 E 13th Ave.,Eugene,OR,97403,Duck Store
Shelton McMurphey Johnson House,303 Willamette Street,Eugene,OR,97401,Shelton-Mcmurphey-Johnson Hse
Full City Coffee Roasters - High St. Cafe,295 E 13th Ave.,Eugene,OR,97401,Full City Coffee Roasters
Coburg Pizza Company & Nana's Caffé,90999 S Willamette Street,Coburg,OR,97408,Coburg Pizza Co
Friendly Street Market & Party on Friendly,2757 Friendly Street,Eugene,OR,97405,Friendly Street Market
Mezza Luna Pizzeria - Crescent Village,2776 Shadow View Drive,Eugene,OR,97408,Mezza Luna Pizzeria
Mezza Luna Pizzeria - Downtown,933 Pearl Street,Eugene,OR,97401,Mezza Luna Pizzeria
Our Daily Bread,88170 Territorial Rd.,Veneta,OR,97487,Our Daily Bread Restaurant
Screamin' Jay's,1398 Kincaid St.,Eugene,OR,97405,Screamin Jay s
Takoda's Restaurant,91806 Mill Creek Rd.,Blue River,OR,97413,Takoda s
Falling Sky Brew House,1334 Oak Alley,Eugene,OR,97401,Falling Sky Brewing House
Ninkasi Brewing Company,272 Van Buren St.,Eugene,OR,97402,Ninkasi Brewing
Oakshire Brewing Public House,207 Madison Street,Eugene,OR,97402,Oakshire Brewing
The Bier Stein Bottleshop & Pub,1591 Willamette St.,Eugene,OR,97401,Bier Stein
Oregon Wine LAB,488 Lincoln Street,Eugene,OR,97401,Oregon Wine Lab
McKenzie River Mountain Resort Adventures,51668 Blue River Dr.,Blue River,OR,97413,Mckenzie River Mountain Resort
Horse Creek Lodge Shuttle,56228 Delta Drive,McKenzie Bridge,OR,97413,Horse Creek Lodge
